CTC1_L_00324001-01
1 31928U 26530TL  26037.47804398  .00000000  00000+0  00000-0 0  9999
2 31928  55.0000   0.0000 0000000   0.0000   0.0000 14.51731110    10
CTC1_L_00324001-02
1 31929U 26858XW  26037.47804398  .00000000  00000+0  00000-0 0  9993
2 31929  55.0000   0.0000 0000000   0.0000  90.0000 14.51731110    10
CTC1_L_00324001-03
1 31930U 22376RS  26037.47804398  .00000000  00000+0  00000-0 0  9996
2 31930  55.0000   0.0000 0000000   0.0000 180.0000 14.51731110    12
CTC1_L_00324001-04
1 31931U 23319QK  26037.47804398  .00000000  00000+0  00000-0 0  9995
2 31931  55.0000   0.0000 0000000   0.0000 270.0000 14.51731110    13
CTC1_L_00324002-01
1 31932U 26631SN  26037.47804398  .00000000  00000+0  00000-0 0  9996
2 31932  55.0000  12.0000 0000000   0.0000  12.0000 14.51731110    11
CTC1_L_00324002-02
1 31933U 25252ER  26037.47804398  .00000000  00000+0  00000-0 0  9995
2 31933  55.0000  12.0000 0000000   0.0000 102.0000 14.51731110    12
CTC1_L_00324002-03
1 31934U 26966MZ  26037.47804398  .00000000  00000+0  00000-0 0  9999
2 31934  55.0000  12.0000 0000000   0.0000 192.0000 14.51731110    12
CTC1_L_00324002-04
1 31935U 26633YE  26037.47804398  .00000000  00000+0  00000-0 0  9991
2 31935  55.0000  12.0000 0000000   0.0000 282.0000 14.51731110    13
CTC1_L_00324003-01
1 31936U 26561MC  26037.47804398  .00000000  00000+0  00000-0 0  9992
2 31936  55.0000  24.0000 0000000   0.0000  24.0000 14.51731110    11
CTC1_L_00324003-02
1 31937U 26848RN  26037.47804398  .00000000  00000+0  00000-0 0  9991
2 31937  55.0000  24.0000 0000000   0.0000 114.0000 14.51731110    12
CTC1_L_00324003-03
1 31938U 24592SF  26037.47804398  .00000000  00000+0  00000-0 0  9996
2 31938  55.0000  24.0000 0000000   0.0000 204.0000 14.51731110    13
CTC1_L_00324003-04
1 31939U 25313OX  26037.47804398  .00000000  00000+0  00000-0 0  9999
2 31939  55.0000  24.0000 0000000   0.0000 294.0000 14.51731110    13
CTC1_L_00324004-01
1 31940U 24844CQ  26037.47804398  .00000000  00000+0  00000-0 0  9999
2 31940  55.0000  36.0000 0000000   0.0000  36.0000 14.51731110    12
CTC1_L_00324004-02
1 31941U 25217TR  26037.47804398  .00000000  00000+0  00000-0 0  9995
2 31941  55.0000  36.0000 0000000   0.0000 126.0000 14.51731110    13
CTC1_L_00324004-03
1 31942U 25883UN  26037.47804398  .00000000  00000+0  00000-0 0  9995
2 31942  55.0000  36.0000 0000000   0.0000 216.0000 14.51731110    14
CTC1_L_00324004-04
1 31943U 24502II  26037.47804398  .00000000  00000+0  00000-0 0  9993
2 31943  55.0000  36.0000 0000000   0.0000 306.0000 14.51731110    15
CTC1_L_00324005-01
1 31944U 24755MN  26037.47804398  .00000000  00000+0  00000-0 0  9994
2 31944  55.0000  48.0000 0000000   0.0000  48.0000 14.51731110    12
CTC1_L_00324005-02
1 31945U 22269ES  26037.47804398  .00000000  00000+0  00000-0 0  9993
2 31945  55.0000  48.0000 0000000   0.0000 138.0000 14.51731110    13
CTC1_L_00324005-03
1 31946U 22621IK  26037.47804398  .00000000  00000+0  00000-0 0  9996
2 31946  55.0000  48.0000 0000000   0.0000 228.0000 14.51731110    14
CTC1_L_00324005-04
1 31947U 25012OY  26037.47804398  .00000000  00000+0  00000-0 0  9994
2 31947  55.0000  48.0000 0000000   0.0000 318.0000 14.51731110    15
CTC1_L_00324006-01
1 31948U 25953RP  26037.47804398  .00000000  00000+0  00000-0 0  9999
2 31948  55.0000  60.0000 0000000   0.0000  60.0000 14.51731110    14
CTC1_L_00324006-02
1 31949U 23666QR  26037.47804398  .00000000  00000+0  00000-0 0  9999
2 31949  55.0000  60.0000 0000000   0.0000 150.0000 14.51731110    15
CTC1_L_00324006-03
1 31950U 26500PG  26037.47804398  .00000000  00000+0  00000-0 0  9991
2 31950  55.0000  60.0000 0000000   0.0000 240.0000 14.51731110    17
CTC1_L_00324006-04
1 31951U 23120PV  26037.47804398  .00000000  00000+0  00000-0 0  9997
2 31951  55.0000  60.0000 0000000   0.0000 330.0000 14.51731110    18
CTC1_L_00324007-01
1 31952U 23230VM  26037.47804398  .00000000  00000+0  00000-0 0  9990
2 31952  55.0000  72.0000 0000000   0.0000  72.0000 14.51731110    15
CTC1_L_00324007-02
1 31953U 25503YL  26037.47804398  .00000000  00000+0  00000-0 0  9996
2 31953  55.0000  72.0000 0000000   0.0000 162.0000 14.51731110    16
CTC1_L_00324007-03
1 31954U 22914IB  26037.47804398  .00000000  00000+0  00000-0 0  9990
2 31954  55.0000  72.0000 0000000   0.0000 252.0000 14.51731110    17
CTC1_L_00324007-04
1 31955U 23290CW  26037.47804398  .00000000  00000+0  00000-0 0  9999
2 31955  55.0000  72.0000 0000000   0.0000 342.0000 14.51731110    18
CTC1_L_00324008-01
1 31956U 24893ZD  26037.47804398  .00000000  00000+0  00000-0 0  9990
2 31956  55.0000  84.0000 0000000   0.0000  84.0000 14.51731110    15
CTC1_L_00324008-02
1 31957U 26755OM  26037.47804398  .00000000  00000+0  00000-0 0  9990
2 31957  55.0000  84.0000 0000000   0.0000 174.0000 14.51731110    16
CTC1_L_00324008-03
1 31958U 24985PV  26037.47804398  .00000000  00000+0  00000-0 0  9994
2 31958  55.0000  84.0000 0000000   0.0000 264.0000 14.51731110    17
CTC1_L_00324008-04
1 31959U 24109NU  26037.47804398  .00000000  00000+0  00000-0 0  9993
2 31959  55.0000  84.0000 0000000   0.0000 354.0000 14.51731110    18
CTC1_L_00324009-01
1 31960U 23228NM  26037.47804398  .00000000  00000+0  00000-0 0  9996
2 31960  55.0000  96.0000 0000000   0.0000  96.0000 14.51731110    16
CTC1_L_00324009-02
1 31961U 25351GK  26037.47804398  .00000000  00000+0  00000-0 0  9996
2 31961  55.0000  96.0000 0000000   0.0000 186.0000 14.51731110    17
CTC1_L_00324009-03
1 31962U 22486GS  26037.47804398  .00000000  00000+0  00000-0 0  9993
2 31962  55.0000  96.0000 0000000   0.0000 276.0000 14.51731110    18
CTC1_L_00324009-04
1 31963U 24122BU  26037.47804398  .00000000  00000+0  00000-0 0  9993
2 31963  55.0000  96.0000 0000000   0.0000   6.0000 14.51731110    10
CTC1_L_00324010-01
1 31964U 26613HH  26037.47804398  .00000000  00000+0  00000-0 0  9991
2 31964  55.0000 108.0000 0000000   0.0000 108.0000 14.51731110    18
CTC1_L_00324010-02
1 31965U 25497YH  26037.47804398  .00000000  00000+0  00000-0 0  9991
2 31965  55.0000 108.0000 0000000   0.0000 198.0000 14.51731110    18
CTC1_L_00324010-03
1 31966U 23367VT  26037.47804398  .00000000  00000+0  00000-0 0  9996
2 31966  55.0000 108.0000 0000000   0.0000 288.0000 14.51731110    19
CTC1_L_00324010-04
1 31967U 22550QP  26037.47804398  .00000000  00000+0  00000-0 0  9990
2 31967  55.0000 108.0000 0000000   0.0000  18.0000 14.51731110    11
CTC1_L_00324011-01
1 31968U 26118JO  26037.47804398  .00000000  00000+0  00000-0 0  9995
2 31968  55.0000 120.0000 0000000   0.0000 120.0000 14.51731110    10
CTC1_L_00324011-02
1 31969U 23477FV  26037.47804398  .00000000  00000+0  00000-0 0  9991
2 31969  55.0000 120.0000 0000000   0.0000 210.0000 14.51731110    11
CTC1_L_00324011-03
1 31970U 25528VH  26037.47804398  .00000000  00000+0  00000-0 0  9992
2 31970  55.0000 120.0000 0000000   0.0000 300.0000 14.51731110    13
CTC1_L_00324011-04
1 31971U 24532CC  26037.47804398  .00000000  00000+0  00000-0 0  9997
2 31971  55.0000 120.0000 0000000   0.0000  30.0000 14.51731110    14
CTC1_L_00324012-01
1 31972U 24626DQ  26037.47804398  .00000000  00000+0  00000-0 0  9992
2 31972  55.0000 132.0000 0000000   0.0000 132.0000 14.51731110    11
CTC1_L_00324012-02
1 31973U 23014AO  26037.47804398  .00000000  00000+0  00000-0 0  9993
2 31973  55.0000 132.0000 0000000   0.0000 222.0000 14.51731110    12
CTC1_L_00324012-03
1 31974U 24520A   26037.47804398  .00000000  00000+0  00000-0 0  9997
2 31974  55.0000 132.0000 0000000   0.0000 312.0000 14.51731110    13
CTC1_L_00324012-04
1 31975U 26666IF  26037.47804398  .00000000  00000+0  00000-0 0  9991
2 31975  55.0000 132.0000 0000000   0.0000  42.0000 14.51731110    14
CTC1_L_00324013-01
1 31976U 24181TG  26037.47804398  .00000000  00000+0  00000-0 0  9992
2 31976  55.0000 144.0000 0000000   0.0000 144.0000 14.51731110    11
CTC1_L_00324013-02
1 31977U 26990TR  26037.47804398  .00000000  00000+0  00000-0 0  9993
2 31977  55.0000 144.0000 0000000   0.0000 234.0000 14.51731110    12
CTC1_L_00324013-03
1 31978U 22302NR  26037.47804398  .00000000  00000+0  00000-0 0  9997
2 31978  55.0000 144.0000 0000000   0.0000 324.0000 14.51731110    13
CTC1_L_00324013-04
1 31979U 23630WH  26037.47804398  .00000000  00000+0  00000-0 0  9993
2 31979  55.0000 144.0000 0000000   0.0000  54.0000 14.51731110    14
CTC1_L_00324014-01
1 31980U 25126IZ  26037.47804398  .00000000  00000+0  00000-0 0  9997
2 31980  55.0000 156.0000 0000000   0.0000 156.0000 14.51731110    12
CTC1_L_00324014-02
1 31981U 26619YA  26037.47804398  .00000000  00000+0  00000-0 0  9996
2 31981  55.0000 156.0000 0000000   0.0000 246.0000 14.51731110    13
CTC1_L_00324014-03
1 31982U 24495DL  26037.47804398  .00000000  00000+0  00000-0 0  9997
2 31982  55.0000 156.0000 0000000   0.0000 336.0000 14.51731110    14
CTC1_L_00324014-04
1 31983U 25786NC  26037.47804398  .00000000  00000+0  00000-0 0  9992
2 31983  55.0000 156.0000 0000000   0.0000  66.0000 14.51731110    15
CTC1_L_00324015-01
1 31984U 24777NU  26037.47804398  .00000000  00000+0  00000-0 0  9992
2 31984  55.0000 168.0000 0000000   0.0000 168.0000 14.51731110    12
CTC1_L_00324015-02
1 31985U 23464YI  26037.47804398  .00000000  00000+0  00000-0 0  9995
2 31985  55.0000 168.0000 0000000   0.0000 258.0000 14.51731110    13
CTC1_L_00324015-03
1 31986U 25702Q   26037.47804398  .00000000  00000+0  00000-0 0  9993
2 31986  55.0000 168.0000 0000000   0.0000 348.0000 14.51731110    14
CTC1_L_00324015-04
1 31987U 25956PV  26037.47804398  .00000000  00000+0  00000-0 0  9995
2 31987  55.0000 168.0000 0000000   0.0000  78.0000 14.51731110    15
CTC1_L_00324016-01
1 31988U 22454YD  26037.47804398  .00000000  00000+0  00000-0 0  9996
2 31988  55.0000 180.0000 0000000   0.0000 180.0000 14.51731110    14
CTC1_L_00324016-02
1 31989U 24952MH  26037.47804398  .00000000  00000+0  00000-0 0  9992
2 31989  55.0000 180.0000 0000000   0.0000 270.0000 14.51731110    15
